[
  {
    "name": "ONEWEB-0628",
    "noradId": "55169",
    "line1": "1 55169U 23004AF  26185.93957161 -.00000435  00000+0 -12440-2 0  9994",
    "line2": "2 55169  87.8958 347.1226 0001816  72.8037 287.3290 13.12442832170369"
  },
  {
    "name": "ONEWEB-0629",
    "noradId": "55170",
    "line1": "1 55170U 23004AG  26186.49005522  .00000053  00000+0  10308-3 0  9999",
    "line2": "2 55170  87.9136   2.2285 0001623  84.0605 276.0712 13.17649309169990"
  },
  {
    "name": "ONEWEB-0631",
    "noradId": "55171",
    "line1": "1 55171U 23004AH  26186.38772722  .00000023  00000+0  26249-4 0  9990",
    "line2": "2 55171  87.9185 331.8157 0002364  94.7053 265.4349 13.18685884172072"
  },
  {
    "name": "ONEWEB-0709",
    "noradId": "55172",
    "line1": "1 55172U 23004AJ  26186.51557630  .00000465  00000+0  12762-2 0  9998",
    "line2": "2 55172  87.8879  17.4291 0002468 105.4878 254.6523 13.11416646168270"
  },
  {
    "name": "ONEWEB-0710",
    "noradId": "55173",
    "line1": "1 55173U 23004AK  26186.04876995  .00000012  00000+0 -12275-5 0  9996",
    "line2": "2 55173  87.9135   2.3116 0001964  86.3545 273.7812 13.17647723169939"
  },
  {
    "name": "ONEWEB-0711",
    "noradId": "55174",
    "line1": "1 55174U 23004AL  26186.48673961 -.00000505  00000+0 -14594-2 0  9994",
    "line2": "2 55174  87.8882  17.4228 0002228  71.1680 288.9690 13.11416881168232"
  },
  {
    "name": "ONEWEB-0713",
    "noradId": "55175",
    "line1": "1 55175U 23004AM  26186.50540124  .00000198  00000+0  52417-3 0  9995",
    "line2": "2 55175  87.8883  17.4208 0002033  78.3634 281.7722 13.11417479168224"
  },
  {
    "name": "ONEWEB-0715",
    "noradId": "55176",
    "line1": "1 55176U 23004AN  26186.50030955 -.00000012  00000+0 -70316-4 0  9998",
    "line2": "2 55176  87.8881  17.4223 0002479  96.2896 263.8514 13.11417390168269"
  },
  {
    "name": "ONEWEB-0716",
    "noradId": "55177",
    "line1": "1 55177U 23004AP  26186.04201845  .00000043  00000+0  77130-4 0  9999",
    "line2": "2 55177  87.9135   2.3157 0001676  95.0351 265.0972 13.17647913169932"
  },
  {
    "name": "ONEWEB-0717",
    "noradId": "55178",
    "line1": "1 55178U 23004AQ  26186.02515757  .00000027  00000+0  35209-4 0  9991",
    "line2": "2 55178  87.9146   2.3083 0002296  80.8619 279.2772 13.17649961169986"
  },
  {
    "name": "ONEWEB-0719",
    "noradId": "55179",
    "line1": "1 55179U 23004AR  26186.49089674  .00000051  00000+0  98234-4 0  9991",
    "line2": "2 55179  87.9145   2.1961 0001668  89.5924 270.5399 13.17650508169995"
  },
  {
    "name": "ONEWEB-0530",
    "noradId": "55796",
    "line1": "1 55796U 23029A   26186.27156159 -.00000012  00000+0 -60709-4 0  9997",
    "line2": "2 55796  87.9183 270.8641 0001998  86.1920 273.9441 13.20772469163530"
  },
  {
    "name": "ONEWEB-0534",
    "noradId": "55797",
    "line1": "1 55797U 23029B   26186.25976654  .00000082  00000+0  17007-3 0  9993",
    "line2": "2 55797  87.9186 270.8671 0002000 102.8445 257.2911 13.20772671163532"
  },
  {
    "name": "ONEWEB-0556",
    "noradId": "55798",
    "line1": "1 55798U 23029C   26186.26649487  .00000042  00000+0  71031-4 0  9990",
    "line2": "2 55798  87.9182 270.8649 0001162  98.1373 261.9892 13.20769701163539"
  },
  {
    "name": "ONEWEB-0562",
    "noradId": "55799",
    "line1": "1 55799U 23029D   26186.25304052  .00000105  00000+0  22518-3 0  9991",
    "line2": "2 55799  87.9183 270.8485 0001655  76.0111 284.1207 13.20772109163534"
  },
  {
    "name": "ONEWEB-0563",
    "noradId": "55800",
    "line1": "1 55800U 23029E   26186.24797948  .00000069  00000+0  13819-3 0  9996",
    "line2": "2 55800  87.9182 270.8799 0001976 106.3841 253.7510 13.20773682163522"
  }
]