{"fetched_at":"2026-07-06T08:46:38.495Z","source":"https://celestrak.org/NORAD/elements/gp.php?GROUP=oneweb&FORMAT=JSON","constellation":"oneweb","records":[{"OBJECT_NAME":"ONEWEB-0628","OBJECT_ID":"2023-004AF","EPOCH":"2026-07-04T22:32:58.987104","CLASSIFICATION_TYPE":"U","MEAN_MOTION":13.12442832,"ECCENTRICITY":0.0001816,"INCLINATION":87.8958,"RA_OF_ASC_NODE":347.1226,"ARG_OF_PERICENTER":72.8037,"MEAN_ANOMALY":287.329,"EPHEMERIS_TYPE":0,"NORAD_CAT_ID":55169,"ELEMENT_SET_NO":999,"REV_AT_EPOCH":17036,"BSTAR":-0.001244,"MEAN_MOTION_DOT":-0.00000435,"MEAN_MOTION_DDOT":0},{"OBJECT_NAME":"ONEWEB-0629","OBJECT_ID":"2023-004AG","EPOCH":"2026-07-05T11:45:40.771008","CLASSIFICATION_TYPE":"U","MEAN_MOTION":13.17649309,"ECCENTRICITY":0.0001623,"INCLINATION":87.9136,"RA_OF_ASC_NODE":2.2285,"ARG_OF_PERICENTER":84.0605,"MEAN_ANOMALY":276.0712,"EPHEMERIS_TYPE":0,"NORAD_CAT_ID":55170,"ELEMENT_SET_NO":999,"REV_AT_EPOCH":16999,"BSTAR":0.00010308,"MEAN_MOTION_DOT":5.3e-7,"MEAN_MOTION_DDOT":0},{"OBJECT_NAME":"ONEWEB-0631","OBJECT_ID":"2023-004AH","EPOCH":"2026-07-05T09:18:19.631808","CLASSIFICATION_TYPE":"U","MEAN_MOTION":13.18685884,"ECCENTRICITY":0.0002364,"INCLINATION":87.9185,"RA_OF_ASC_NODE":331.8157,"ARG_OF_PERICENTER":94.7053,"MEAN_ANOMALY":265.4349,"EPHEMERIS_TYPE":0,"NORAD_CAT_ID":55171,"ELEMENT_SET_NO":999,"REV_AT_EPOCH":17207,"BSTAR":0.000026249,"MEAN_MOTION_DOT":2.3e-7,"MEAN_MOTION_DDOT":0},{"OBJECT_NAME":"ONEWEB-0709","OBJECT_ID":"2023-004AJ","EPOCH":"2026-07-05T12:22:25.792320","CLASSIFICATION_TYPE":"U","MEAN_MOTION":13.11416646,"ECCENTRICITY":0.0002468,"INCLINATION":87.8879,"RA_OF_ASC_NODE":17.4291,"ARG_OF_PERICENTER":105.4878,"MEAN_ANOMALY":254.6523,"EPHEMERIS_TYPE":0,"NORAD_CAT_ID":55172,"ELEMENT_SET_NO":999,"REV_AT_EPOCH":16827,"BSTAR":0.0012762,"MEAN_MOTION_DOT":0.00000465,"MEAN_MOTION_DDOT":0},{"OBJECT_NAME":"ONEWEB-0710","OBJECT_ID":"2023-004AK","EPOCH":"2026-07-05T01:10:13.723680","CLASSIFICATION_TYPE":"U","MEAN_MOTION":13.17647723,"ECCENTRICITY":0.0001964,"INCLINATION":87.9135,"RA_OF_ASC_NODE":2.3116,"ARG_OF_PERICENTER":86.3545,"MEAN_ANOMALY":273.7812,"EPHEMERIS_TYPE":0,"NORAD_CAT_ID":55173,"ELEMENT_SET_NO":999,"REV_AT_EPOCH":16993,"BSTAR":-0.0000012275,"MEAN_MOTION_DOT":1.2e-7,"MEAN_MOTION_DDOT":0},{"OBJECT_NAME":"ONEWEB-0711","OBJECT_ID":"2023-004AL","EPOCH":"2026-07-05T11:40:54.302304","CLASSIFICATION_TYPE":"U","MEAN_MOTION":13.11416881,"ECCENTRICITY":0.0002228,"INCLINATION":87.8882,"RA_OF_ASC_NODE":17.4228,"ARG_OF_PERICENTER":71.168,"MEAN_ANOMALY":288.969,"EPHEMERIS_TYPE":0,"NORAD_CAT_ID":55174,"ELEMENT_SET_NO":999,"REV_AT_EPOCH":16823,"BSTAR":-0.0014594,"MEAN_MOTION_DOT":-0.00000505,"MEAN_MOTION_DDOT":0},{"OBJECT_NAME":"ONEWEB-0713","OBJECT_ID":"2023-004AM","EPOCH":"2026-07-05T12:07:46.667136","CLASSIFICATION_TYPE":"U","MEAN_MOTION":13.11417479,"ECCENTRICITY":0.0002033,"INCLINATION":87.8883,"RA_OF_ASC_NODE":17.4208,"ARG_OF_PERICENTER":78.3634,"MEAN_ANOMALY":281.7722,"EPHEMERIS_TYPE":0,"NORAD_CAT_ID":55175,"ELEMENT_SET_NO":999,"REV_AT_EPOCH":16822,"BSTAR":0.00052417,"MEAN_MOTION_DOT":0.00000198,"MEAN_MOTION_DDOT":0},{"OBJECT_NAME":"ONEWEB-0715","OBJECT_ID":"2023-004AN","EPOCH":"2026-07-05T12:00:26.745120","CLASSIFICATION_TYPE":"U","MEAN_MOTION":13.1141739,"ECCENTRICITY":0.0002479,"INCLINATION":87.8881,"RA_OF_ASC_NODE":17.4223,"ARG_OF_PERICENTER":96.2896,"MEAN_ANOMALY":263.8514,"EPHEMERIS_TYPE":0,"NORAD_CAT_ID":55176,"ELEMENT_SET_NO":999,"REV_AT_EPOCH":16826,"BSTAR":-0.000070316,"MEAN_MOTION_DOT":-1.2e-7,"MEAN_MOTION_DDOT":0},{"OBJECT_NAME":"ONEWEB-0716","OBJECT_ID":"2023-004AP","EPOCH":"2026-07-05T01:00:30.394080","CLASSIFICATION_TYPE":"U","MEAN_MOTION":13.17647913,"ECCENTRICITY":0.0001676,"INCLINATION":87.9135,"RA_OF_ASC_NODE":2.3157,"ARG_OF_PERICENTER":95.0351,"MEAN_ANOMALY":265.0972,"EPHEMERIS_TYPE":0,"NORAD_CAT_ID":55177,"ELEMENT_SET_NO":999,"REV_AT_EPOCH":16993,"BSTAR":0.00007713,"MEAN_MOTION_DOT":4.3e-7,"MEAN_MOTION_DDOT":0},{"OBJECT_NAME":"ONEWEB-0717","OBJECT_ID":"2023-004AQ","EPOCH":"2026-07-05T00:36:13.614048","CLASSIFICATION_TYPE":"U","MEAN_MOTION":13.17649961,"ECCENTRICITY":0.0002296,"INCLINATION":87.9146,"RA_OF_ASC_NODE":2.3083,"ARG_OF_PERICENTER":80.8619,"MEAN_ANOMALY":279.2772,"EPHEMERIS_TYPE":0,"NORAD_CAT_ID":55178,"ELEMENT_SET_NO":999,"REV_AT_EPOCH":16998,"BSTAR":0.000035209,"MEAN_MOTION_DOT":2.7e-7,"MEAN_MOTION_DDOT":0},{"OBJECT_NAME":"ONEWEB-0719","OBJECT_ID":"2023-004AR","EPOCH":"2026-07-05T11:46:53.478336","CLASSIFICATION_TYPE":"U","MEAN_MOTION":13.17650508,"ECCENTRICITY":0.0001668,"INCLINATION":87.9145,"RA_OF_ASC_NODE":2.1961,"ARG_OF_PERICENTER":89.5924,"MEAN_ANOMALY":270.5399,"EPHEMERIS_TYPE":0,"NORAD_CAT_ID":55179,"ELEMENT_SET_NO":999,"REV_AT_EPOCH":16999,"BSTAR":0.000098234,"MEAN_MOTION_DOT":5.1e-7,"MEAN_MOTION_DDOT":0},{"OBJECT_NAME":"ONEWEB-0530","OBJECT_ID":"2023-029A","EPOCH":"2026-07-05T06:31:02.921376","CLASSIFICATION_TYPE":"U","MEAN_MOTION":13.20772469,"ECCENTRICITY":0.0001998,"INCLINATION":87.9183,"RA_OF_ASC_NODE":270.8641,"ARG_OF_PERICENTER":86.192,"MEAN_ANOMALY":273.9441,"EPHEMERIS_TYPE":0,"NORAD_CAT_ID":55796,"ELEMENT_SET_NO":999,"REV_AT_EPOCH":16353,"BSTAR":-0.000060709,"MEAN_MOTION_DOT":-1.2e-7,"MEAN_MOTION_DDOT":0},{"OBJECT_NAME":"ONEWEB-0534","OBJECT_ID":"2023-029B","EPOCH":"2026-07-05T06:14:03.829056","CLASSIFICATION_TYPE":"U","MEAN_MOTION":13.20772671,"ECCENTRICITY":0.0002,"INCLINATION":87.9186,"RA_OF_ASC_NODE":270.8671,"ARG_OF_PERICENTER":102.8445,"MEAN_ANOMALY":257.2911,"EPHEMERIS_TYPE":0,"NORAD_CAT_ID":55797,"ELEMENT_SET_NO":999,"REV_AT_EPOCH":16353,"BSTAR":0.00017007,"MEAN_MOTION_DOT":8.2e-7,"MEAN_MOTION_DDOT":0},{"OBJECT_NAME":"ONEWEB-0556","OBJECT_ID":"2023-029C","EPOCH":"2026-07-05T06:23:45.156768","CLASSIFICATION_TYPE":"U","MEAN_MOTION":13.20769701,"ECCENTRICITY":0.0001162,"INCLINATION":87.9182,"RA_OF_ASC_NODE":270.8649,"ARG_OF_PERICENTER":98.1373,"MEAN_ANOMALY":261.9892,"EPHEMERIS_TYPE":0,"NORAD_CAT_ID":55798,"ELEMENT_SET_NO":999,"REV_AT_EPOCH":16353,"BSTAR":0.000071031,"MEAN_MOTION_DOT":4.2e-7,"MEAN_MOTION_DDOT":0},{"OBJECT_NAME":"ONEWEB-0562","OBJECT_ID":"2023-029D","EPOCH":"2026-07-05T06:04:22.700928","CLASSIFICATION_TYPE":"U","MEAN_MOTION":13.20772109,"ECCENTRICITY":0.0001655,"INCLINATION":87.9183,"RA_OF_ASC_NODE":270.8485,"ARG_OF_PERICENTER":76.0111,"MEAN_ANOMALY":284.1207,"EPHEMERIS_TYPE":0,"NORAD_CAT_ID":55799,"ELEMENT_SET_NO":999,"REV_AT_EPOCH":16353,"BSTAR":0.00022518,"MEAN_MOTION_DOT":0.00000105,"MEAN_MOTION_DDOT":0},{"OBJECT_NAME":"ONEWEB-0563","OBJECT_ID":"2023-029E","EPOCH":"2026-07-05T05:57:05.427072","CLASSIFICATION_TYPE":"U","MEAN_MOTION":13.20773682,"ECCENTRICITY":0.0001976,"INCLINATION":87.9182,"RA_OF_ASC_NODE":270.8799,"ARG_OF_PERICENTER":106.3841,"MEAN_ANOMALY":253.751,"EPHEMERIS_TYPE":0,"NORAD_CAT_ID":55800,"ELEMENT_SET_NO":999,"REV_AT_EPOCH":16352,"BSTAR":0.00013819,"MEAN_MOTION_DOT":6.9e-7,"MEAN_MOTION_DDOT":0}]}
